NORAD_CAT_ID,OBJECT_NAME,OBJECT_TYPE,EPOCH,MEAN_MOTION,ECCENTRICITY,INCLINATION,RA_OF_ASC_NODE,ARG_OF_PERICENTER,MEAN_ANOMALY,BSTAR,MEAN_MOTION_DOT,MEAN_MOTION_DDOT,TLE_LINE0,TLE_LINE1,TLE_LINE2,SEMIMAJOR_AXIS,PERIOD,APOGEE,PERIGEE,DECAYED
54166.0,STARLINK-5280,PAYLOAD,2024-02-24 03:17:34,15.08835041,0.0001584,53.2175,106.6781,89.9581,270.1593,6.6609e-05,7.72e-06,0.0,0 STARLINK-5280,1 54166U 22141K   24055.13720101  .00000772  00000-0  66609-4 0  9990,2 54166  53.2175 106.6781 0001584  89.9581 270.1593 15.08835041 73455,6917.896,95.438,540.856,538.665,0.0
54166.0,STARLINK-5280,PAYLOAD,2024-02-24 09:39:06,15.0883867,0.0001641,53.2155,105.4872,92.44,267.678,3.8175e-05,3.2e-06,0.0,0 STARLINK-5280,1 54166U 22141K   24055.40216014  .00000320  00000-0  38175-4 0  9999,2 54166  53.2155 105.4872 0001641  92.4400 267.6780 15.08838670 73498,6917.884,95.438,540.885,538.614,0.0
54166.0,STARLINK-5280,PAYLOAD,2024-02-24 20:46:48,15.08842088,0.0001525,53.2165,103.4049,93.4336,266.683,4.4298e-05,4.17e-06,0.0,0 STARLINK-5280,1 54166U 22141K   24055.86583716  .00000417  00000-0  44298-4 0  9995,2 54166  53.2165 103.4049 0001525  93.4336 266.6830 15.08842088 73564,6917.874,95.437,540.794,538.684,0.0
54166.0,STARLINK-5280,PAYLOAD,2024-02-25 09:29:53,15.08844321,0.0001452,53.2162,101.0257,94.562,265.5538,7.3425e-05,8.81e-06,0.0,0 STARLINK-5280,1 54166U 22141K   24056.39575353  .00000881  00000-0  73425-4 0  9991,2 54166  53.2162 101.0257 0001452  94.5620 265.5538 15.08844321 73647,6917.867,95.437,540.737,538.728,0.0
54166.0,STARLINK-5280,PAYLOAD,2024-02-25 12:40:38,15.08852802,0.0001552,53.2164,100.4308,95.4938,264.6231,4.6068e-05,4.45e-06,0.0,0 STARLINK-5280,1 54166U 22141K   24056.52822884  .00000445  00000-0  46068-4 0  9999,2 54166  53.2164 100.4308 0001552  95.4938 264.6231 15.08852802 73667,6917.841,95.437,540.78,538.633,0.0
54166.0,STARLINK-5280,PAYLOAD,2024-02-26 09:20:40,15.08842001,0.0001666,53.2174,96.5624,111.1323,248.9848,-4.2428e-06,-3.56e-06,0.0,0 STARLINK-5280,1 54166U 22141K   24057.38935601 -.00000356  00000-0 -42428-5 0  9996,2 54166  53.2174  96.5624 0001666 111.1323 248.9848 15.08842001 73797,6917.874,95.437,540.892,538.587,0.0
54166.0,STARLINK-5280,PAYLOAD,2024-02-26 12:31:26,15.08842669,0.0001619,53.2169,95.9677,102.3062,257.8111,-4.8624e-06,-3.65e-06,0.0,0 STARLINK-5280,1 54166U 22141K   24057.52183571 -.00000365  00000-0 -48624-5 0  9997,2 54166  53.2169  95.9677 0001619 102.3062 257.8111 15.08842669 73817,6917.872,95.437,540.857,538.617,0.0
54166.0,STARLINK-5280,PAYLOAD,2024-02-27 02:49:55,15.08836573,0.0001688,53.2174,93.2918,92.1632,267.9553,-3.4999e-05,-8.45e-06,0.0,0 STARLINK-5280,1 54166U 22141K   24058.11800235 -.00000845  00000-0 -34999-4 0  9998,2 54166  53.2174  93.2918 0001688  92.1632 267.9553 15.08836573 73906,6917.891,95.438,540.924,538.588,0.0
54166.0,STARLINK-5280,PAYLOAD,2024-02-27 09:11:27,15.08840131,0.0001501,53.2172,92.1068,91.7942,268.3223,6.0242e-07,-2.78e-06,0.0,0 STARLINK-5280,1 54166U 22141K   24058.38295896 -.00000278  00000-0  60242-6 0  9999,2 54166  53.2172  92.1068 0001501  91.7942 268.3223 15.08840131 73949,6917.88,95.438,540.783,538.707,0.0
54166.0,STARLINK-5280,PAYLOAD,2024-02-27 18:43:46,15.08839609,0.0001446,53.2167,90.3237,93.0826,267.0331,-5.0486e-05,-1.091e-05,0.0,0 STARLINK-5280,1 54166U 22141K   24058.78040118 -.00001091  00000-0 -50486-4 0  9990,2 54166  53.2167  90.3237 0001446  93.0826 267.0331 15.08839609 74007,6917.882,95.438,540.747,538.746,0.0
54166.0,STARLINK-5280,PAYLOAD,2024-02-28 10:37:37,15.08842516,0.0001408,53.2164,87.3478,85.2702,274.8451,1.166e-06,-2.69e-06,0.0,0 STARLINK-5280,1 54166U 22141K   24059.44279972 -.00000269  00000-0  11660-5 0  9993,2 54166  53.2164  87.3478 0001408  85.2702 274.8451 15.08842516 74102,6917.873,95.437,540.712,538.764,0.0
54166.0,STARLINK-5280,PAYLOAD,2024-02-28 18:34:33,15.08838947,0.0001471,53.2168,85.8614,92.808,267.3081,1.3038e-05,-8e-07,0.0,0 STARLINK-5280,1 54166U 22141K   24059.77400150 -.00000080  00000-0  13038-4 0  9994,2 54166  53.2168  85.8614 0001471  92.8080 267.3081 15.08838947 74158,6917.884,95.438,540.766,538.731,0.0
54166.0,STARLINK-5280,PAYLOAD,2024-02-29 10:28:25,15.0883609,0.000157,53.2175,82.8889,91.3448,268.7724,3.2712e-05,2.33e-06,0.0,0 STARLINK-5280,1 54166U 22141K   24060.43640649  .00000233  00000-0  32712-4 0  9997,2 54166  53.2175  82.8889 0001570  91.3448 268.7724 15.08836090 74256,6917.892,95.438,540.843,538.671,0.0
54166.0,STARLINK-5280,PAYLOAD,2024-03-01 10:19:12,15.08840488,0.0001575,53.2175,78.4266,87.0171,273.1001,2.0463e-05,3.8e-07,0.0,0 STARLINK-5280,1 54166U 22141K   24061.43000756  .00000038  00000-0  20463-4 0  9990,2 54166  53.2175  78.4266 0001575  87.0171 273.1001 15.08840488 74407,6917.879,95.438,540.833,538.654,0.0
54166.0,STARLINK-5280,PAYLOAD,2024-03-01 18:16:08,15.08841599,0.0001576,53.2176,76.9403,90.0058,270.1115,3.3123e-05,2.39e-06,0.0,0 STARLINK-5280,1 54166U 22141K   24061.76120628  .00000239  00000-0  33123-4 0  9997,2 54166  53.2176  76.9403 0001576  90.0058 270.1115 15.08841599 74455,6917.876,95.437,540.831,538.65,0.0
54166.0,STARLINK-5280,PAYLOAD,2024-03-02 08:34:35,15.08848579,0.0001538,53.2172,74.2628,92.1626,267.9542,0.00012495,1.702e-05,0.0,0 STARLINK-5280,1 54166U 22141K   24062.35735863  .00001702  00000-0  12495-3 0  9990,2 54166  53.2172  74.2628 0001538  92.1626 267.9542 15.08848579 74546,6917.854,95.437,540.783,538.655,0.0
54166.0,STARLINK-5280,PAYLOAD,2024-03-02 18:06:55,15.08838841,0.0001547,53.2173,72.4763,97.1313,262.9855,5.9903e-05,6.65e-06,0.0,0 STARLINK-5280,1 54166U 22141K   24062.75480660  .00000665  00000-0  59903-4 0  9999,2 54166  53.2173  72.4763 0001547  97.1313 262.9855 15.08838841 74605,6917.884,95.438,540.819,538.679,0.0
54166.0,STARLINK-5280,PAYLOAD,2024-03-03 06:50:00,15.08839088,0.0001459,53.2162,70.1001,90.6787,269.4372,-7.5841e-06,-4.09e-06,0.0,0 STARLINK-5280,1 54166U 22141K   24063.28472950 -.00000409  00000-0 -75841-5 0  9999,2 54166  53.2162  70.1001 0001459  90.6787 269.4372 15.08839088 74686,6917.883,95.438,540.757,538.739,0.0
54166.0,STARLINK-5280,PAYLOAD,2024-03-04 03:30:00,15.08849657,0.0001466,53.2158,66.2355,85.7295,274.3865,5.7041e-05,6.2e-06,0.0,0 STARLINK-5280,1 54166U 22141K   24064.14584000  .00000620  00000-0  57041-4 0  9999,2 54166  53.2158  66.2355 0001466  85.7295 274.3865 15.08849657 74816,6917.851,95.437,540.73,538.702,0.0
54166.0,STARLINK-5280,PAYLOAD,2024-03-04 06:40:46,15.08855238,0.0001484,53.2166,65.6403,99.5577,260.5583,4.7658e-05,4.71e-06,0.0,0 STARLINK-5280,1 54166U 22141K   24064.27831594  .00000471  00000-0  47658-4 0  9993,2 54166  53.2166  65.6403 0001484  99.5577 260.5583 15.08855238 74836,6917.834,95.437,540.725,538.672,0.0
54166.0,STARLINK-5280,PAYLOAD,2024-03-05 03:20:48,15.0882921,0.0001449,53.2162,61.774,97.0607,263.055,2.0419e-05,3.7e-07,0.0,0 STARLINK-5280,1 54166U 22141K   24065.13945497  .00000037  00000-0  20419-4 0  9991,2 54166  53.2162  61.7740 0001449  97.0607 263.0550 15.08829210 74968,6917.913,95.438,540.781,538.776,0.0
54166.0,STARLINK-5280,PAYLOAD,2024-03-05 09:42:21,15.08830385,0.0001548,53.2173,60.5839,85.3801,274.7368,-1.9332e-05,-5.96e-06,0.0,0 STARLINK-5280,1 54166U 22141K   24065.40441815 -.00000596  00000-0 -19332-4 0  9990,2 54166  53.2173  60.5839 0001548  85.3801 274.7368 15.08830385 75009,6917.91,95.438,540.846,538.704,0.0
54166.0,STARLINK-5280,PAYLOAD,2024-03-05 16:03:54,15.08825494,0.000152,53.2169,59.393,86.797,273.3196,-4.6852e-05,-1.033e-05,0.0,0 STARLINK-5280,1 54166U 22141K   24065.66938406 -.00001033  00000-0 -46852-4 0  9999,2 54166  53.2169  59.3930 0001520  86.7970 273.3196 15.08825494 75047,6917.925,95.438,540.841,538.738,0.0
54166.0,STARLINK-5280,PAYLOAD,2024-03-06 09:33:09,15.08834515,0.0001588,53.2177,56.1238,98.0777,262.0395,-7.9069e-05,-1.546e-05,0.0,0 STARLINK-5280,1 54166U 22141K   24066.39802445 -.00001546  00000-0 -79069-4 0  9998,2 54166  53.2177  56.1238 0001588  98.0777 262.0395 15.08834515 75159,6917.897,95.438,540.861,538.664,0.0
54166.0,STARLINK-5280,PAYLOAD,2024-03-07 03:02:23,15.08840645,0.0001554,53.2178,52.8532,106.5749,253.5414,0.00022182,3.244e-05,0.0,0 STARLINK-5280,1 54166U 22141K   24067.12665617  .00003244  00000-0  22182-3 0  9996,2 54166  53.2178  52.8532 0001554 106.5749 253.5414 15.08840645 75267,6917.878,95.438,540.818,538.668,0.0
54166.0,STARLINK-5280,PAYLOAD,2024-03-07 09:23:55,15.08849616,0.0001542,53.2183,51.6635,107.2009,252.9152,0.00031823,4.782e-05,0.0,0 STARLINK-5280,1 54166U 22141K   24067.39160981  .00004782  00000-0  31823-3 0  9999,2 54166  53.2183  51.6635 0001542 107.2009 252.9152 15.08849616 75302,6917.851,95.437,540.783,538.649,0.0
54166.0,STARLINK-5280,PAYLOAD,2024-03-07 23:42:24,15.08828342,0.0001595,53.2187,48.9892,110.4753,249.641,0.00011874,1.602e-05,0.0,0 STARLINK-5280,1 54166U 22141K   24067.98778870  .00001602  00000-0  11874-3 0  9998,2 54166  53.2187  48.9892 0001595 110.4753 249.6410 15.08828342 75392,6917.916,95.438,540.884,538.678,0.0
54166.0,STARLINK-5280,PAYLOAD,2024-03-08 06:03:57,15.08839128,0.0001553,53.2177,47.7973,102.9191,257.1974,0.00017411,2.484e-05,0.0,0 STARLINK-5280,1 54166U 22141K   24068.25274360  .00002484  00000-0  17411-3 0  9996,2 54166  53.2177  47.7973 0001553 102.9191 257.1974 15.08839128 75432,6917.883,95.438,540.822,538.674,0.0
54166.0,STARLINK-5280,PAYLOAD,2024-03-09 07:30:06,15.08847958,0.0001553,53.2169,43.0389,99.5916,260.5252,-3.345e-05,-8.2e-06,0.0,0 STARLINK-5280,1 54166U 22141K   24069.31257415 -.00000820  00000-0 -33450-4 0  9992,2 54166  53.2169  43.0389 0001553  99.5916 260.5252 15.08847958 75593,6917.856,95.437,540.795,538.647,0.0
54166.0,STARLINK-5280,PAYLOAD,2024-03-10 04:10:07,15.08841889,0.0001595,53.2167,39.1732,98.3797,261.7376,0.00022576,3.307e-05,0.0,0 STARLINK-5280,1 54166U 22141K   24070.17369816  .00003307  00000-0  22576-3 0  9994,2 54166  53.2167  39.1732 0001595  98.3797 261.7376 15.08841889 75721,6917.875,95.437,540.843,538.636,0.0
